[{"OBJECT_NAME":"IRIDIUM 124","OBJECT_ID":"2017-039H","EPOCH":"2026-03-05T08:00:32.664960","MEAN_MOTION":14.43270476,"ECCENTRICITY":0.00021171,"INCLINATION":86.4538,"RA_OF_ASC_NODE":333.7949,"ARG_OF_PERICENTER":84.3379,"MEAN_ANOMALY":275.8063,"EPHEMERIS_TYPE":0,"CLASSIFICATION_TYPE":"U","NORAD_CAT_ID":42810,"ELEMENT_SET_NO":999,"REV_AT_EPOCH":46013,"BSTAR":0.00016770255,"MEAN_MOTION_DOT":5.84e-6,"MEAN_MOTION_DDOT":0},{"OBJECT_NAME":"IRIDIUM 128","OBJECT_ID":"2017-039J","EPOCH":"2026-03-05T12:47:42.609120","MEAN_MOTION":14.34217875,"ECCENTRICITY":0.00020596,"INCLINATION":86.3909,"RA_OF_ASC_NODE":68.4844,"ARG_OF_PERICENTER":95.363,"MEAN_ANOMALY":264.7801,"EPHEMERIS_TYPE":0,"CLASSIFICATION_TYPE":"U","NORAD_CAT_ID":42811,"ELEMENT_SET_NO":999,"REV_AT_EPOCH":45512,"BSTAR":6.723652e-6,"MEAN_MOTION_DOT":3.9e-7,"MEAN_MOTION_DDOT":0},{"OBJECT_NAME":"IRIDIUM 121","OBJECT_ID":"2017-039K","EPOCH":"2026-03-05T10:07:30.940032","MEAN_MOTION":14.34217709,"ECCENTRICITY":0.00022392,"INCLINATION":86.3966,"RA_OF_ASC_NODE":37.0214,"ARG_OF_PERICENTER":90.0964,"MEAN_ANOMALY":270.0488,"EPHEMERIS_TYPE":0,"CLASSIFICATION_TYPE":"U","NORAD_CAT_ID":42812,"ELEMENT_SET_NO":999,"REV_AT_EPOCH":45495,"BSTAR":2.033982e-6,"MEAN_MOTION_DOT":2.5e-7,"MEAN_MOTION_DDOT":0},{"OBJECT_NAME":"IRIDIUM 133","OBJECT_ID":"2017-061A","EPOCH":"2026-03-05T13:33:22.675392","MEAN_MOTION":14.34217634,"ECCENTRICITY":0.0002149,"INCLINATION":86.3912,"RA_OF_ASC_NODE":68.5867,"ARG_OF_PERICENTER":90.1916,"MEAN_ANOMALY":269.9526,"EPHEMERIS_TYPE":0,"CLASSIFICATION_TYPE":"U","NORAD_CAT_ID":42955,"ELEMENT_SET_NO":999,"REV_AT_EPOCH":43992,"BSTAR":2.034593e-6,"MEAN_MOTION_DOT":2.5e-7,"MEAN_MOTION_DDOT":0},{"OBJECT_NAME":"IRIDIUM 100","OBJECT_ID":"2017-061B","EPOCH":"2026-03-05T13:24:14.635008","MEAN_MOTION":14.34217533,"ECCENTRICITY":0.0002141,"INCLINATION":86.391,"RA_OF_ASC_NODE":68.5102,"ARG_OF_PERICENTER":90.302,"MEAN_ANOMALY":269.8421,"EPHEMERIS_TYPE":0,"CLASSIFICATION_TYPE":"U","NORAD_CAT_ID":42956,"ELEMENT_SET_NO":999,"REV_AT_EPOCH":43992,"BSTAR":-3.452304e-6,"MEAN_MOTION_DOT":1.0e-7,"MEAN_MOTION_DDOT":0},{"OBJECT_NAME":"IRIDIUM 122","OBJECT_ID":"2017-061C","EPOCH":"2026-03-05T12:38:34.399392","MEAN_MOTION":14.34217898,"ECCENTRICITY":0.00021155,"INCLINATION":86.3909,"RA_OF_ASC_NODE":68.5234,"ARG_OF_PERICENTER":88.3672,"MEAN_ANOMALY":271.7766,"EPHEMERIS_TYPE":0,"CLASSIFICATION_TYPE":"U","NORAD_CAT_ID":42957,"ELEMENT_SET_NO":999,"REV_AT_EPOCH":43992,"BSTAR":8.460979e-6,"MEAN_MOTION_DOT":4.3e-7,"MEAN_MOTION_DDOT":0},{"OBJECT_NAME":"IRIDIUM 129","OBJECT_ID":"2017-061D","EPOCH":"2026-03-05T13:15:06.669792","MEAN_MOTION":14.34217836,"ECCENTRICITY":0.00025362,"INCLINATION":86.3911,"RA_OF_ASC_NODE":68.5788,"ARG_OF_PERICENTER":86.1398,"MEAN_ANOMALY":274.0088,"EPHEMERIS_TYPE":0,"CLASSIFICATION_TYPE":"U","NORAD_CAT_ID":42958,"ELEMENT_SET_NO":999,"REV_AT_EPOCH":43994,"BSTAR":-2.818552e-6,"MEAN_MOTION_DOT":1.2e-7,"MEAN_MOTION_DDOT":0},{"OBJECT_NAME":"IRIDIUM 119","OBJECT_ID":"2017-061E","EPOCH":"2026-03-05T12:29:26.648448","MEAN_MOTION":14.34217664,"ECCENTRICITY":0.00021262,"INCLINATION":86.3911,"RA_OF_ASC_NODE":68.5875,"ARG_OF_PERICENTER":85.5153,"MEAN_ANOMALY":274.6286,"EPHEMERIS_TYPE":0,"CLASSIFICATION_TYPE":"U","NORAD_CAT_ID":42959,"ELEMENT_SET_NO":999,"REV_AT_EPOCH":43995,"BSTAR":-1.479204e-6,"MEAN_MOTION_DOT":1.6e-7,"MEAN_MOTION_DDOT":0},{"OBJECT_NAME":"IRIDIUM 107","OBJECT_ID":"2017-061F","EPOCH":"2026-03-05T12:56:50.561376","MEAN_MOTION":14.34217861,"ECCENTRICITY":0.00018721,"INCLINATION":86.3911,"RA_OF_ASC_NODE":68.6,"ARG_OF_PERICENTER":86.7048,"MEAN_ANOMALY":273.4362,"EPHEMERIS_TYPE":0,"CLASSIFICATION_TYPE":"U","NORAD_CAT_ID":42960,"ELEMENT_SET_NO":999,"REV_AT_EPOCH":43996,"BSTAR":1.856309e-6,"MEAN_MOTION_DOT":2.5e-7,"MEAN_MOTION_DDOT":0},{"OBJECT_NAME":"IRIDIUM 132","OBJECT_ID":"2017-061G","EPOCH":"2026-03-05T11:25:30.552384","MEAN_MOTION":14.34217915,"ECCENTRICITY":0.00021066,"INCLINATION":86.3911,"RA_OF_ASC_NODE":68.6068,"ARG_OF_PERICENTER":90.0586,"MEAN_ANOMALY":270.0851,"EPHEMERIS_TYPE":0,"CLASSIFICATION_TYPE":"U","NORAD_CAT_ID":42961,"ELEMENT_SET_NO":999,"REV_AT_EPOCH":43995,"BSTAR":1.060197e-5,"MEAN_MOTION_DOT":4.9e-7,"MEAN_MOTION_DDOT":0},{"OBJECT_NAME":"IRIDIUM 136","OBJECT_ID":"2017-061H","EPOCH":"2026-03-05T12:11:10.618656","MEAN_MOTION":14.34217591,"ECCENTRICITY":0.00020398,"INCLINATION":86.391,"RA_OF_ASC_NODE":68.5998,"ARG_OF_PERICENTER":86.9968,"MEAN_ANOMALY":273.1462,"EPHEMERIS_TYPE":0,"CLASSIFICATION_TYPE":"U","NORAD_CAT_ID":42962,"ELEMENT_SET_NO":999,"REV_AT_EPOCH":43997,"BSTAR":-7.235677e-6,"MEAN_MOTION_DOT":0,"MEAN_MOTION_DDOT":0},{"OBJECT_NAME":"IRIDIUM 139","OBJECT_ID":"2017-061J","EPOCH":"2026-03-05T12:20:18.653856","MEAN_MOTION":14.34217564,"ECCENTRICITY":0.00019777,"INCLINATION":86.3912,"RA_OF_ASC_NODE":68.6575,"ARG_OF_PERICENTER":91.0056,"MEAN_ANOMALY":269.1367,"EPHEMERIS_TYPE":0,"CLASSIFICATION_TYPE":"U","NORAD_CAT_ID":42963,"ELEMENT_SET_NO":999,"REV_AT_EPOCH":43998,"BSTAR":-4.065144e-6,"MEAN_MOTION_DOT":8.0e-8,"MEAN_MOTION_DDOT":0},{"OBJECT_NAME":"IRIDIUM 125","OBJECT_ID":"2017-061K","EPOCH":"2026-03-05T12:02:02.559264","MEAN_MOTION":14.34217615,"ECCENTRICITY":0.00018697,"INCLINATION":86.3913,"RA_OF_ASC_NODE":68.7221,"ARG_OF_PERICENTER":74.0898,"MEAN_ANOMALY":286.0504,"EPHEMERIS_TYPE":0,"CLASSIFICATION_TYPE":"U","NORAD_CAT_ID":42964,"ELEMENT_SET_NO":999,"REV_AT_EPOCH":43999,"BSTAR":-4.381511e-6,"MEAN_MOTION_DOT":8.0e-8,"MEAN_MOTION_DDOT":0},{"OBJECT_NAME":"IRIDIUM 135","OBJECT_ID":"2017-083A","EPOCH":"2026-03-05T13:05:15.522720","MEAN_MOTION":14.34219388,"ECCENTRICITY":0.00021927,"INCLINATION":86.402,"RA_OF_ASC_NODE":5.3237,"ARG_OF_PERICENTER":86.2081,"MEAN_ANOMALY":273.9366,"EPHEMERIS_TYPE":0,"CLASSIFICATION_TYPE":"U","NORAD_CAT_ID":43070,"ELEMENT_SET_NO":999,"REV_AT_EPOCH":42929,"BSTAR":0.00014122532,"MEAN_MOTION_DOT":4.15e-6,"MEAN_MOTION_DDOT":0},{"OBJECT_NAME":"IRIDIUM 138","OBJECT_ID":"2017-083B","EPOCH":"2026-03-05T08:40:23.200896","MEAN_MOTION":14.342174,"ECCENTRICITY":0.00022183,"INCLINATION":86.4027,"RA_OF_ASC_NODE":5.0804,"ARG_OF_PERICENTER":75.5162,"MEAN_ANOMALY":284.628,"EPHEMERIS_TYPE":0,"CLASSIFICATION_TYPE":"U","NORAD_CAT_ID":43071,"ELEMENT_SET_NO":999,"REV_AT_EPOCH":42925,"BSTAR":-1.3877131e-5,"MEAN_MOTION_DOT":-1.9e-7,"MEAN_MOTION_DDOT":0},{"OBJECT_NAME":"IRIDIUM 116","OBJECT_ID":"2017-083C","EPOCH":"2026-03-05T06:14:15.155232","MEAN_MOTION":14.34217865,"ECCENTRICITY":0.0002061,"INCLINATION":86.4021,"RA_OF_ASC_NODE":5.4302,"ARG_OF_PERICENTER":93.7376,"MEAN_ANOMALY":266.4055,"EPHEMERIS_TYPE":0,"CLASSIFICATION_TYPE":"U","NORAD_CAT_ID":43072,"ELEMENT_SET_NO":999,"REV_AT_EPOCH":42927,"BSTAR":6.919192e-6,"MEAN_MOTION_DOT":3.9e-7,"MEAN_MOTION_DDOT":0},{"OBJECT_NAME":"IRIDIUM 130","OBJECT_ID":"2017-083D","EPOCH":"2026-03-05T07:09:03.116736","MEAN_MOTION":14.34217801,"ECCENTRICITY":0.00018907,"INCLINATION":86.4024,"RA_OF_ASC_NODE":5.6791,"ARG_OF_PERICENTER":88.5083,"MEAN_ANOMALY":271.6329,"EPHEMERIS_TYPE":0,"CLASSIFICATION_TYPE":"U","NORAD_CAT_ID":43073,"ELEMENT_SET_NO":999,"REV_AT_EPOCH":42922,"BSTAR":2.9569089e-5,"MEAN_MOTION_DOT":1.03e-6,"MEAN_MOTION_DDOT":0}]
